SL-14 R/B               
1 16792U 86046B   25332.63621429  .00000512  00000+0  56382-4 0  9992
2 16792  82.4815 175.6333 0022597 198.6095 161.4298 14.85462036111403
SL-14 R/B               
1 16882U 86055B   25332.45374904  .00000572  00000+0  63334-4 0  9996
2 16882  82.5216 221.7949 0017814 310.5813 222.3958 14.85508768104331
AJISAI (EGS)            
1 16908U 86061A   25332.61769230 -.00000098  00000+0 -34789-5 0  9998
2 16908  50.0111  44.1410 0011249  30.4331  77.8564 12.44514119455417
COSMOS 1812             
1 17295U 87003A   25332.42389654  .00081308  00000+0  61216-3 0  9996
2 17295  82.4877 307.4747 0006750 105.7695 254.4313 15.72220050128406
SL-14 R/B               
1 17567U 87024B   25332.63892927  .00000484  00000+0  52473-4 0  9998
2 17567  82.5284 187.7002 0017006 232.8044 127.1621 14.86002603 73122
COSMOS 1833             
1 17589U 87027A   25332.63032828 -.00000032  00000+0  84171-5 0  9992
2 17589  70.9124 178.4381 0021936 351.6058   8.4692 14.13017952996035
SL-16 R/B               
1 17590U 87027B   25332.61483906  .00000259  00000+0  15234-3 0  9991
2 17590  71.0010 129.4812 0007350 274.3435  85.6849 14.17150260  1023
SL-14 R/B               
1 17912U 87038B   25332.58201442  .00000520  00000+0  57568-4 0  9998
2 17912  82.5030  32.0347 0020415 135.7960 224.4892 14.85240805 64224
COSMOS 1844             
1 17973U 87041A   25332.48951111 -.00000102  00000+0 -27552-4 0  9991
2 17973  70.8995 247.6259 0030671 179.4319 180.6843 14.14528282989275
SL-14 R/B               
1 18153U 87055B   25332.57638938  .00000580  00000+0  64189-4 0  9991
2 18153  82.4996  84.3351 0020404 352.1136   7.9756 14.85497480 54927
COSMOS 1867             
1 18187U 87060A   25332.42078562 -.00000007  00000+0  35075-4 0  9996
2 18187  65.0101 230.3006 0013604 269.6698  90.2827 14.31482795  5449
COSMOS 1892             
1 18421U 87088A   25332.26536166  .01259464 -11999-5  69250-3 0  9998
2 18421  82.4604  59.9213 0005541 268.2867  91.7787 16.19562950 89005
